{
  "type": "FeatureCollection",
  "features": [
    {
      "type": "Feature",
      "properties": {
        "norad_id": 66908,
        "name": "1998-067XU",
        "group": "stations",
        "lat": 4.063491936764171,
        "lon": -24.303061536330326,
        "alt_km": 411.32470406170705,
        "timestamp": "2025-12-09T09:46:46.439265+00:00",
        "meta_object_name": "1998-067XU",
        "meta_object_id": "1998-067XU",
        "meta_epoch": "2025-12-08T22:12:12.980736",
        "meta_mean_motion": 15.50818267,
        "meta_eccentricity": 0.0005167,
        "meta_inclination": 51.6297,
        "meta_ra_of_asc_node": 161.3178,
        "meta_arg_of_pericenter": 203.3313,
        "meta_mean_anomaly": 156.7442,
        "meta_ephemeris_type": 0,
        "meta_classification_type": "U",
        "meta_norad_cat_id": 66908,
        "meta_element_set_no": 999,
        "meta_rev_at_epoch": 102,
        "meta_bstar": 0.0011183,
        "meta_mean_motion_dot": 0.00065818,
        "meta_mean_motion_ddot": 0,
        "tle_line1": "1 66908U 98067XU  25342.92515024  .00065818  00000+0  11183-2 0  9996",
        "tle_line2": "2 66908  51.6297 161.3178 0005167 203.3313 156.7442 15.50818267  1027"
      },
      "geometry": {
        "type": "Point",
        "coordinates": [
          -24.303061536330326,
          4.063491936764171
        ]
      }
    },
    {
      "type": "Feature",
      "properties": {
        "norad_id": 66909,
        "name": "SILVERSAT",
        "group": "stations",
        "lat": 3.374637227152594,
        "lon": -23.756316034653903,
        "alt_km": 411.242124344727,
        "timestamp": "2025-12-09T09:46:46.439288+00:00",
        "meta_object_name": "SILVERSAT",
        "meta_object_id": "1998-067XV",
        "meta_epoch": "2025-12-08T17:33:40.093920",
        "meta_mean_motion": 15.50878297,
        "meta_eccentricity": 0.0005012,
        "meta_inclination": 51.6297,
        "meta_ra_of_asc_node": 162.2763,
        "meta_arg_of_pericenter": 204.4469,
        "meta_mean_anomaly": 155.6283,
        "meta_ephemeris_type": 0,
        "meta_classification_type": "U",
        "meta_norad_cat_id": 66909,
        "meta_element_set_no": 999,
        "meta_rev_at_epoch": 99,
        "meta_bstar": 0.0013404205,
        "meta_mean_motion_dot": 0.00079284,
        "meta_mean_motion_ddot": 0,
        "tle_line1": "1 66909U 98067XV  25342.73171405  .00079284  00000+0  13404-2 0  9997",
        "tle_line2": "2 66909  51.6297 162.2763 0005012 204.4469 155.6283 15.50878297   996"
      },
      "geometry": {
        "type": "Point",
        "coordinates": [
          -23.756316034653903,
          3.374637227152594
        ]
      }
    },
    {
      "type": "Feature",
      "properties": {
        "norad_id": 66910,
        "name": "1998-067XW",
        "group": "stations",
        "lat": -1.6672825273915526,
        "lon": -19.769762974205687,
        "alt_km": 410.2807919008819,
        "timestamp": "2025-12-09T09:46:46.439311+00:00",
        "meta_object_name": "1998-067XW",
        "meta_object_id": "1998-067XW",
        "meta_epoch": "2025-12-08T22:10:28.282080",
        "meta_mean_motion": 15.51110893,
        "meta_eccentricity": 0.0005927,
        "meta_inclination": 51.6296,
        "meta_ra_of_asc_node": 161.31,
        "meta_arg_of_pericenter": 189.6161,
        "meta_mean_anomaly": 170.4716,
        "meta_ephemeris_type": 0,
        "meta_classification_type": "U",
        "meta_norad_cat_id": 66910,
        "meta_element_set_no": 999,
        "meta_rev_at_epoch": 102,
        "meta_bstar": 0.0011401,
        "meta_mean_motion_dot": 0.00067841,
        "meta_mean_motion_ddot": 0,
        "tle_line1": "1 66910U 98067XW  25342.92393845  .00067841  00000+0  11401-2 0  9995",
        "tle_line2": "2 66910  51.6296 161.3100 0005927 189.6161 170.4716 15.51110893  1023"
      },
      "geometry": {
        "type": "Point",
        "coordinates": [
          -19.769762974205687,
          -1.6672825273915526
        ]
      }
    },
    {
      "type": "Feature",
      "properties": {
        "norad_id": 66911,
        "name": "1998-067XX",
        "group": "stations",
        "lat": -2.9323225586631185,
        "lon": -18.767686339908,
        "alt_km": 410.1483297464383,
        "timestamp": "2025-12-09T09:46:46.439331+00:00",
        "meta_object_name": "1998-067XX",
        "meta_object_id": "1998-067XX",
        "meta_epoch": "2025-12-09T02:48:25.031232",
        "meta_mean_motion": 15.51276016,
        "meta_eccentricity": 0.0005707,
        "meta_inclination": 51.6296,
        "meta_ra_of_asc_node": 160.3494,
        "meta_arg_of_pericenter": 191.2278,
        "meta_mean_anomaly": 168.8584,
        "meta_ephemeris_type": 0,
        "meta_classification_type": "U",
        "meta_norad_cat_id": 66911,
        "meta_element_set_no": 999,
        "meta_rev_at_epoch": 104,
        "meta_bstar": 0.0013712,
        "meta_mean_motion_dot": 0.00082324,
        "meta_mean_motion_ddot": 0,
        "tle_line1": "1 66911U 98067XX  25343.11695638  .00082324  00000+0  13712-2 0  9993",
        "tle_line2": "2 66911  51.6296 160.3494 0005707 191.2278 168.8584 15.51276016  1049"
      },
      "geometry": {
        "type": "Point",
        "coordinates": [
          -18.767686339908,
          -2.9323225586631185
        ]
      }
    },
    {
      "type": "Feature",
      "properties": {
        "norad_id": 66912,
        "name": "1998-067XY",
        "group": "stations",
        "lat": 6.779416342640223,
        "lon": -26.47377263765109,
        "alt_km": 411.7640541852261,
        "timestamp": "2025-12-09T09:46:46.439342+00:00",
        "meta_object_name": "1998-067XY",
        "meta_object_id": "1998-067XY",
        "meta_epoch": "2025-12-08T19:07:24.190464",
        "meta_mean_motion": 15.50590013,
        "meta_eccentricity": 0.00050406,
        "meta_inclination": 51.6301,
        "meta_ra_of_asc_node": 161.961,
        "meta_arg_of_pericenter": 202.8515,
        "meta_mean_anomaly": 157.2251,
        "meta_ephemeris_type": 0,
        "meta_classification_type": "U",
        "meta_norad_cat_id": 66912,
        "meta_element_set_no": 999,
        "meta_rev_at_epoch": 99,
        "meta_bstar": 0.0010396633,
        "meta_mean_motion_dot": 0.00060617,
        "meta_mean_motion_ddot": 0,
        "tle_line1": "1 66912U 98067XY  25342.79680776  .00060617  00000+0  10397-2 0  9991",
        "tle_line2": "2 66912  51.6301 161.9610 0005040 202.8515 157.2251 15.50590013   998"
      },
      "geometry": {
        "type": "Point",
        "coordinates": [
          -26.47377263765109,
          6.779416342640223
        ]
      }
    }
  ]
}